RADUGA 25               
1 20499U 90016A   26117.44162347 -.00000310  00000+0  00000+0 0  9991
2 20499  12.3751 335.0495 0004230 214.3300 124.3088  1.00196082132397
SL-12 R/B(2)            
1 20502U 90016D   26117.09536766 -.00000233  00000+0  00000+0 0  9991
2 20502  12.5154 335.5512 0040253 245.1405 308.8984  1.00016312132255
NEWSAT-1 (PALAPA B2R)   
1 20570U 90034A   26117.46567181 -.00000216  00000+0  00000+0 0  9993
2 20570  14.7334   3.2979 0007609 142.5880  44.8108  0.99533808 45782
INSAT-1D                
1 20643U 90051A   26116.98307593 -.00000183  00000+0  00000+0 0  9991
2 20643  14.6157 354.3599 0014885 194.1680 101.7151  1.00276646118237
GORIZONT 20             
1 20659U 90054A   26117.13239314 -.00000068  00000+0  00000+0 0  9996
2 20659  12.7319 336.4277 0005886 245.3796 109.3700  1.00320014131176
SL-12 R/B(2)            
1 20662U 90054D   26116.55369008 -.00000290  00000+0  00000+0 0  9996
2 20662  12.5746 335.8487 0013787  99.9619 260.1285  1.00513207131277
COSMOS 2085             
1 20693U 90061A   26117.11850242 -.00000087  00000+0  00000+0 0  9990
2 20693  12.7200 336.8529 0014037  30.7706 321.9027  1.00263694130984
SL-12 R/B(2)            
1 20696U 90061D   26116.51798661 -.00000387  00000+0  00000+0 0  9995
2 20696  12.6868 336.7273 0031674 218.4266 326.9537  1.00293263129886
DFS 2                   
1 20706U 90063B   26116.92921345 -.00000051  00000+0  00000+0 0  9999
2 20706  14.5553   4.0295 0006392 281.1432 280.2926  0.99551234122418
COSMOS 2087             
1 20707U 90064A   26105.04517706 -.00000447  00000+0  00000+0 0  9993
2 20707  67.7398 190.1295 6225529  26.4156 355.1269  2.00554412261564
SL-6 R/B(2)             
1 20710U 90064D   26116.94812992 -.00000523  00000+0  00000+0 0  9998
2 20710  69.2995 102.4294 6182737  13.0920 357.4575  2.04551825267028
MARCOPOLO 2 R/B [PAM-D] 
1 20764U 90074C   26116.66637702  .00000021  00000+0  49482-3 0  9994
2 20764  20.7774 264.1677 7273408  72.1525 350.0623  2.18680906282667
SKYNET 4C               
1 20776U 90079A   26116.78581043  .00000114  00000+0  00000+0 0  9993
2 20776  13.3569 350.1687 0002682  32.4888 148.3564  1.00269928130374
GOES 2 AKM              
1 20799U 77048G   26117.42109198 -.00000363  00000+0  00000+0 0  9995
2 20799   4.2293 276.0695 0210575 107.2776 288.0489  1.00571983117321
METEOSAT-4 AKM          
1 20800U 89020E   26116.99909330 -.00000236  00000+0  00000+0 0  9997
2 20800  11.0531 331.6328 0128956 255.1801  62.9298  1.00473114115680
GOES 3 AKM              
1 20801U 78062D   26116.71091338 -.00000089  00000+0  00000+0 0  9998
2 20801   6.5790 285.2672 0106103  91.1613 108.2466  0.99478961 46453
SMS 2 AKM               
1 20835U 75011F   26117.51081998 -.00000130  00000+0  00000+0 0  9993
2 20835   3.9000 274.3192 0099735 142.1547 177.1432  0.98589234 46077
