[{"OBJECT_NAME":"RADUGA 25","OBJECT_ID":"1990-016A","EPOCH":"2026-04-27T10:35:56.267808","MEAN_MOTION":1.00196082,"ECCENTRICITY":0.000423,"INCLINATION":12.3751,"RA_OF_ASC_NODE":335.0495,"ARG_OF_PERICENTER":214.33,"MEAN_ANOMALY":124.3088,"EPHEMERIS_TYPE":0,"CLASSIFICATION_TYPE":"U","NORAD_CAT_ID":20499,"ELEMENT_SET_NO":999,"REV_AT_EPOCH":13239,"BSTAR":0,"MEAN_MOTION_DOT":-3.1e-6,"MEAN_MOTION_DDOT":0},{"OBJECT_NAME":"SL-12 R/B(2)","OBJECT_ID":"1990-016D","EPOCH":"2026-04-27T02:17:19.765824","MEAN_MOTION":1.00016312,"ECCENTRICITY":0.00402533,"INCLINATION":12.5154,"RA_OF_ASC_NODE":335.5512,"ARG_OF_PERICENTER":245.1405,"MEAN_ANOMALY":308.8984,"EPHEMERIS_TYPE":0,"CLASSIFICATION_TYPE":"U","NORAD_CAT_ID":20502,"ELEMENT_SET_NO":999,"REV_AT_EPOCH":13225,"BSTAR":0,"MEAN_MOTION_DOT":-2.33e-6,"MEAN_MOTION_DDOT":0},{"OBJECT_NAME":"NEWSAT-1 (PALAPA B2R)","OBJECT_ID":"1990-034A","EPOCH":"2026-04-27T11:10:34.044384","MEAN_MOTION":0.99533808,"ECCENTRICITY":0.0007609,"INCLINATION":14.7334,"RA_OF_ASC_NODE":3.2979,"ARG_OF_PERICENTER":142.588,"MEAN_ANOMALY":44.8108,"EPHEMERIS_TYPE":0,"CLASSIFICATION_TYPE":"U","NORAD_CAT_ID":20570,"ELEMENT_SET_NO":999,"REV_AT_EPOCH":4578,"BSTAR":0,"MEAN_MOTION_DOT":-2.16e-6,"MEAN_MOTION_DDOT":0},{"OBJECT_NAME":"INSAT-1D","OBJECT_ID":"1990-051A","EPOCH":"2026-04-26T23:35:37.760352","MEAN_MOTION":1.00276646,"ECCENTRICITY":0.00148858,"INCLINATION":14.6157,"RA_OF_ASC_NODE":354.3599,"ARG_OF_PERICENTER":194.168,"MEAN_ANOMALY":101.7151,"EPHEMERIS_TYPE":0,"CLASSIFICATION_TYPE":"U","NORAD_CAT_ID":20643,"ELEMENT_SET_NO":999,"REV_AT_EPOCH":11823,"BSTAR":0,"MEAN_MOTION_DOT":-1.83e-6,"MEAN_MOTION_DDOT":0},{"OBJECT_NAME":"GORIZONT 20","OBJECT_ID":"1990-054A","EPOCH":"2026-04-27T03:10:38.767296","MEAN_MOTION":1.00320014,"ECCENTRICITY":0.0005886,"INCLINATION":12.7319,"RA_OF_ASC_NODE":336.4277,"ARG_OF_PERICENTER":245.3796,"MEAN_ANOMALY":109.37,"EPHEMERIS_TYPE":0,"CLASSIFICATION_TYPE":"U","NORAD_CAT_ID":20659,"ELEMENT_SET_NO":999,"REV_AT_EPOCH":13117,"BSTAR":0,"MEAN_MOTION_DOT":-6.8e-7,"MEAN_MOTION_DDOT":0},{"OBJECT_NAME":"SL-12 R/B(2)","OBJECT_ID":"1990-054D","EPOCH":"2026-04-26T13:17:18.822912","MEAN_MOTION":1.00513207,"ECCENTRICITY":0.00137876,"INCLINATION":12.5746,"RA_OF_ASC_NODE":335.8487,"ARG_OF_PERICENTER":99.9619,"MEAN_ANOMALY":260.1285,"EPHEMERIS_TYPE":0,"CLASSIFICATION_TYPE":"U","NORAD_CAT_ID":20662,"ELEMENT_SET_NO":999,"REV_AT_EPOCH":13127,"BSTAR":0,"MEAN_MOTION_DOT":-2.9e-6,"MEAN_MOTION_DDOT":0},{"OBJECT_NAME":"COSMOS 2085","OBJECT_ID":"1990-061A","EPOCH":"2026-04-27T02:50:38.609088","MEAN_MOTION":1.00263694,"ECCENTRICITY":0.0014037,"INCLINATION":12.72,"RA_OF_ASC_NODE":336.8529,"ARG_OF_PERICENTER":30.7706,"MEAN_ANOMALY":321.9027,"EPHEMERIS_TYPE":0,"CLASSIFICATION_TYPE":"U","NORAD_CAT_ID":20693,"ELEMENT_SET_NO":999,"REV_AT_EPOCH":13098,"BSTAR":0,"MEAN_MOTION_DOT":-8.7e-7,"MEAN_MOTION_DDOT":0},{"OBJECT_NAME":"SL-12 R/B(2)","OBJECT_ID":"1990-061D","EPOCH":"2026-04-26T12:25:54.043104","MEAN_MOTION":1.00293263,"ECCENTRICITY":0.00316743,"INCLINATION":12.6868,"RA_OF_ASC_NODE":336.7273,"ARG_OF_PERICENTER":218.4266,"MEAN_ANOMALY":326.9537,"EPHEMERIS_TYPE":0,"CLASSIFICATION_TYPE":"U","NORAD_CAT_ID":20696,"ELEMENT_SET_NO":999,"REV_AT_EPOCH":12988,"BSTAR":0,"MEAN_MOTION_DOT":-3.87e-6,"MEAN_MOTION_DDOT":0},{"OBJECT_NAME":"DFS 2","OBJECT_ID":"1990-063B","EPOCH":"2026-04-26T22:18:04.042080","MEAN_MOTION":0.99551234,"ECCENTRICITY":0.0006392,"INCLINATION":14.5553,"RA_OF_ASC_NODE":4.0295,"ARG_OF_PERICENTER":281.1432,"MEAN_ANOMALY":280.2926,"EPHEMERIS_TYPE":0,"CLASSIFICATION_TYPE":"U","NORAD_CAT_ID":20706,"ELEMENT_SET_NO":999,"REV_AT_EPOCH":12241,"BSTAR":0,"MEAN_MOTION_DOT":-5.1e-7,"MEAN_MOTION_DDOT":0},{"OBJECT_NAME":"COSMOS 2087","OBJECT_ID":"1990-064A","EPOCH":"2026-04-15T01:05:03.297984","MEAN_MOTION":2.00554412,"ECCENTRICITY":0.62255293,"INCLINATION":67.7398,"RA_OF_ASC_NODE":190.1295,"ARG_OF_PERICENTER":26.4156,"MEAN_ANOMALY":355.1269,"EPHEMERIS_TYPE":0,"CLASSIFICATION_TYPE":"U","NORAD_CAT_ID":20707,"ELEMENT_SET_NO":999,"REV_AT_EPOCH":26156,"BSTAR":0,"MEAN_MOTION_DOT":-4.47e-6,"MEAN_MOTION_DDOT":0},{"OBJECT_NAME":"SL-6 R/B(2)","OBJECT_ID":"1990-064D","EPOCH":"2026-04-26T22:45:18.425088","MEAN_MOTION":2.04551825,"ECCENTRICITY":0.6182737,"INCLINATION":69.2995,"RA_OF_ASC_NODE":102.4294,"ARG_OF_PERICENTER":13.092,"MEAN_ANOMALY":357.4575,"EPHEMERIS_TYPE":0,"CLASSIFICATION_TYPE":"U","NORAD_CAT_ID":20710,"ELEMENT_SET_NO":999,"REV_AT_EPOCH":26702,"BSTAR":0,"MEAN_MOTION_DOT":-5.23e-6,"MEAN_MOTION_DDOT":0},{"OBJECT_NAME":"MARCOPOLO 2 R/B [PAM-D]","OBJECT_ID":"1990-074C","EPOCH":"2026-04-26T15:59:34.974528","MEAN_MOTION":2.18680906,"ECCENTRICITY":0.72734089,"INCLINATION":20.7774,"RA_OF_ASC_NODE":264.1677,"ARG_OF_PERICENTER":72.1525,"MEAN_ANOMALY":350.0623,"EPHEMERIS_TYPE":0,"CLASSIFICATION_TYPE":"U","NORAD_CAT_ID":20764,"ELEMENT_SET_NO":999,"REV_AT_EPOCH":28266,"BSTAR":0.00049481612,"MEAN_MOTION_DOT":2.1e-7,"MEAN_MOTION_DDOT":0},{"OBJECT_NAME":"SKYNET 4C","OBJECT_ID":"1990-079A","EPOCH":"2026-04-26T18:51:34.021152","MEAN_MOTION":1.00269928,"ECCENTRICITY":0.00026822,"INCLINATION":13.3569,"RA_OF_ASC_NODE":350.1687,"ARG_OF_PERICENTER":32.4888,"MEAN_ANOMALY":148.3564,"EPHEMERIS_TYPE":0,"CLASSIFICATION_TYPE":"U","NORAD_CAT_ID":20776,"ELEMENT_SET_NO":999,"REV_AT_EPOCH":13037,"BSTAR":0,"MEAN_MOTION_DOT":1.14e-6,"MEAN_MOTION_DDOT":0},{"OBJECT_NAME":"GOES 2 AKM","OBJECT_ID":"1977-048G","EPOCH":"2026-04-27T10:06:22.347072","MEAN_MOTION":1.00571983,"ECCENTRICITY":0.0210575,"INCLINATION":4.2293,"RA_OF_ASC_NODE":276.0695,"ARG_OF_PERICENTER":107.2776,"MEAN_ANOMALY":288.0489,"EPHEMERIS_TYPE":0,"CLASSIFICATION_TYPE":"U","NORAD_CAT_ID":20799,"ELEMENT_SET_NO":999,"REV_AT_EPOCH":11732,"BSTAR":0,"MEAN_MOTION_DOT":-3.63e-6,"MEAN_MOTION_DDOT":0},{"OBJECT_NAME":"METEOSAT-4 AKM","OBJECT_ID":"1989-020E","EPOCH":"2026-04-26T23:58:41.661120","MEAN_MOTION":1.00473114,"ECCENTRICITY":0.01289562,"INCLINATION":11.0531,"RA_OF_ASC_NODE":331.6328,"ARG_OF_PERICENTER":255.1801,"MEAN_ANOMALY":62.9298,"EPHEMERIS_TYPE":0,"CLASSIFICATION_TYPE":"U","NORAD_CAT_ID":20800,"ELEMENT_SET_NO":999,"REV_AT_EPOCH":11568,"BSTAR":0,"MEAN_MOTION_DOT":-2.36e-6,"MEAN_MOTION_DDOT":0},{"OBJECT_NAME":"GOES 3 AKM","OBJECT_ID":"1978-062D","EPOCH":"2026-04-26T17:03:42.916032","MEAN_MOTION":0.99478961,"ECCENTRICITY":0.01061033,"INCLINATION":6.579,"RA_OF_ASC_NODE":285.2672,"ARG_OF_PERICENTER":91.1613,"MEAN_ANOMALY":108.2466,"EPHEMERIS_TYPE":0,"CLASSIFICATION_TYPE":"U","NORAD_CAT_ID":20801,"ELEMENT_SET_NO":999,"REV_AT_EPOCH":4645,"BSTAR":0,"MEAN_MOTION_DOT":-8.9e-7,"MEAN_MOTION_DDOT":0},{"OBJECT_NAME":"SMS 2 AKM","OBJECT_ID":"1975-011F","EPOCH":"2026-04-27T12:15:34.846272","MEAN_MOTION":0.98589234,"ECCENTRICITY":0.0099735,"INCLINATION":3.9,"RA_OF_ASC_NODE":274.3192,"ARG_OF_PERICENTER":142.1547,"MEAN_ANOMALY":177.1432,"EPHEMERIS_TYPE":0,"CLASSIFICATION_TYPE":"U","NORAD_CAT_ID":20835,"ELEMENT_SET_NO":999,"REV_AT_EPOCH":4607,"BSTAR":0,"MEAN_MOTION_DOT":-1.3e-6,"MEAN_MOTION_DDOT":0}]
